LYNK TOWER 6            
1 59123U 24043AB  26068.89488777  .00011440  00000+0  40142-3 0  9996
2 59123  97.5426 204.1954 0009749 232.0253 128.0107 15.29548678111845
STARLINK-33767          
1 63722U 25087AB  26068.70486727  .00030991  00000+0  10540-2 0  9998
2 63722  53.1572 219.3615 0001058  56.8658 303.2444 15.30203063 49202
